BRO-15                  
1 60553U 24149CP  26068.78650368  .00000816  00000+0  78021-4 0  9990
2 60553  97.6864 146.0377 0009320  65.4416 294.7775 14.95892184 85149
STARLINK-33992          
1 64026U 25102E   26068.53246875  .00003786  00000+0  32495-3 0  9999
2 64026  70.0008 115.0553 0003617 268.2741  91.8004 14.98329614 46012
